CCSDS_OEM_VERS = 1.0
CREATION_DATE  = 2017-05-11T11:35:15
ORIGINATOR     = GMAT USER

META_START
OBJECT_NAME          = MOPSSat_alt_35785_km_RAAN_180_067
OBJECT_ID            = SatId
CENTER_NAME          = Earth
REF_FRAME            = EME2000
TIME_SYSTEM          = UTC
START_TIME           = 2017-01-01T00:00:00.000
USEABLE_START_TIME   = 2017-01-01T00:00:00.000
USEABLE_STOP_TIME    = 2017-01-02T00:00:00.000
STOP_TIME            = 2017-01-02T00:00:00.000
INTERPOLATION        = Lagrange
INTERPOLATION_DEGREE = 7 
META_STOP


                                                                                   

2017-01-01T10:32:30.000   3.929545558361702e+04  -1.538804727064135e+04  -8.249395034704263e-01   1.121395660229065e+00   2.860017488052503e+00  -6.535740508086928e-05
2017-01-01T10:32:40.000   3.930665911875358e+04  -1.535944301768650e+04  -8.255930540301719e-01   1.119311250274131e+00   2.860832803748313e+00  -6.535269642413146e-05
2017-01-01T10:32:50.000   3.931784180674054e+04  -1.533083061939571e+04  -8.262465572163760e-01   1.117226248585234e+00   2.861646601361888e+00  -6.534793142445857e-05
2017-01-01T10:33:00.000   3.932900364166642e+04  -1.530221009095206e+04  -8.269000124655059e-01   1.115140656266441e+00   2.862458880465657e+00  -6.534311006111283e-05
2017-01-01T10:33:10.000   3.934014461764328e+04  -1.527358144751123e+04  -8.275534192145479e-01   1.113054474419820e+00   2.863269640633759e+00  -6.533823231340093e-05
2017-01-01T10:33:20.000   3.935126472883247e+04  -1.524494470413286e+04  -8.282067769025612e-01   1.110967704140434e+00   2.864078881443914e+00  -6.533329816066297e-05
2017-01-01T10:33:30.000   3.936236396940544e+04  -1.521629987588317e+04  -8.288600849683475e-01   1.108880346523825e+00   2.864886602474577e+00  -6.532830758228882e-05
2017-01-01T10:33:40.000   3.937344233353982e+04  -1.518764697784540e+04  -8.295133428502107e-01   1.106792402666766e+00   2.865692803304649e+00  -6.532326055772156e-05
2017-01-01T10:33:50.000   3.938449981540717e+04  -1.515898602514777e+04  -8.301665499853086e-01   1.104703873669304e+00   2.866497483512587e+00  -6.531815706645625e-05
2017-01-01T10:34:00.000   3.939553640916564e+04  -1.513031703298700e+04  -8.308197058091320e-01   1.102614760636475e+00   2.867300642675868e+00  -6.531299708805091e-05
2017-01-01T10:34:10.000   3.940655210899184e+04  -1.510164001654378e+04  -8.314728097574255e-01   1.100525064672138e+00   2.868102280373312e+00  -6.530778060210877e-05
2017-01-01T10:34:20.000   3.941754690893774e+04  -1.507295499136135e+04  -8.321258612575877e-01   1.098434786906570e+00   2.868902396174662e+00  -6.530250758835494e-05
2017-01-01T10:34:30.000   3.942852080310453e+04  -1.504426197288689e+04  -8.327788597390950e-01   1.096343928463043e+00   2.869700989653244e+00  -6.529717802654524e-05
2017-01-01T10:34:40.000   3.943947378557773e+04  -1.501556097664191e+04  -8.334318046296249e-01   1.094252490470237e+00   2.870498060381240e+00  -6.529179189649975e-05
2017-01-01T10:34:50.000   3.945040585067937e+04  -1.498685201756223e+04  -8.340846953700770e-01   1.092160474014152e+00   2.871293607948040e+00  -6.528634917797671e-05
2017-01-01T10:35:00.000   3.946131699271637e+04  -1.495813511065625e+04  -8.347375313995912e-01   1.090067880186070e+00   2.872087631941926e+00  -6.528084985079786e-05
2017-01-01T10:35:10.000   3.947220720603770e+04  -1.492941027085594e+04  -8.353903121589429e-01   1.087974710071702e+00   2.872880131954250e+00  -6.527529389482070e-05
2017-01-01T10:35:20.000   3.948307648489081e+04  -1.490067751338781e+04  -8.360430370820824e-01   1.085880964778212e+00   2.873671107568958e+00  -6.526968129000492e-05
2017-01-01T10:35:30.000   3.949392482352896e+04  -1.487193685349775e+04  -8.366957056024210e-01   1.083786645414174e+00   2.874460558370430e+00  -6.526401201636480e-05
2017-01-01T10:35:40.000   3.950475221621033e+04  -1.484318830645062e+04  -8.373483171528263e-01   1.081691753089543e+00   2.875248483943393e+00  -6.525828605396688e-05
2017-01-01T10:35:50.000   3.951555865709654e+04  -1.481443188780772e+04  -8.380008711593555e-01   1.079596288935865e+00   2.876034883865548e+00  -6.525250338299065e-05
2017-01-01T10:36:00.000   3.952634414039036e+04  -1.478566761305345e+04  -8.386533670497038e-01   1.077500254079081e+00   2.876819757717582e+00  -6.524666398364909e-05
2017-01-01T10:36:10.000   3.953710866028102e+04  -1.475689549774222e+04  -8.393058042498727e-01   1.075403649650229e+00   2.877603105079201e+00  -6.524076783621925e-05
2017-01-01T10:36:20.000   3.954785221118740e+04  -1.472811555684926e+04  -8.399581821988965e-01   1.073306476738135e+00   2.878384925546813e+00  -6.523481492091104e-05
2017-01-01T10:36:30.000   3.955857478751460e+04  -1.469932780541970e+04  -8.406105003341204e-01   1.071208736436717e+00   2.879165218715829e+00  -6.522880521799798e-05
2017-01-01T10:36:40.000   3.956927638370961e+04  -1.467053225842200e+04  -8.412627580945266e-01   1.069110429834300e+00   2.879943984184696e+00  -6.522273870778886e-05
2017-01-01T10:36:50.000   3.957995699411951e+04  -1.464172893111974e+04  -8.419149549122831e-01   1.067011558040711e+00   2.880721221544597e+00  -6.521661537069764e-05
2017-01-01T10:37:00.000   3.959061661309750e+04  -1.461291783879593e+04  -8.425670902190215e-01   1.064912122167184e+00   2.881496930387149e+00  -6.521043518719395e-05
2017-01-01T10:37:10.000   3.960125523500179e+04  -1.458409899675246e+04  -8.432191634458365e-01   1.062812123326329e+00   2.882271110304335e+00  -6.520419813779980e-05
2017-01-01T10:37:20.000   3.961187285409596e+04  -1.455527242058830e+04  -8.438711740170228e-01   1.060711562652397e+00   2.883043760881248e+00  -6.519790420315756e-05
2017-01-01T10:37:30.000   3.962246946468419e+04  -1.452643812582528e+04  -8.445231213585150e-01   1.058610441274010e+00   2.883814881705934e+00  -6.519155336394152e-05
2017-01-01T10:37:40.000   3.963304506105767e+04  -1.449759612805528e+04  -8.451750048945600e-01   1.056508760324899e+00   2.884584472365487e+00  -6.518514560089191e-05
2017-01-01T10:37:50.000   3.964359963773335e+04  -1.446874644228955e+04  -8.458268240624330e-01   1.054406520896470e+00   2.885352532463429e+00  -6.517868089467066e-05
2017-01-01T10:38:00.000   3.965413318921498e+04  -1.443988908360930e+04  -8.464785782977218e-01   1.052303724085230e+00   2.886119061602322e+00  -6.517215922600500e-05
2017-01-01T10:38:10.000   3.966464571004752e+04  -1.441102406701880e+04  -8.471302670376581e-01   1.050200370982069e+00   2.886884059387718e+00  -6.516558057565612e-05
2017-01-01T10:38:20.000   3.967513719467811e+04  -1.438215140781814e+04  -8.477818897126673e-01   1.048096462699433e+00   2.887647525418048e+00  -6.515894492449546e-05
2017-01-01T10:38:30.000   3.968560763756007e+04  -1.435327112132670e+04  -8.484334457526449e-01   1.045992000351167e+00   2.888409459292197e+00  -6.515225225345088e-05
2017-01-01T10:38:40.000   3.969605703315183e+04  -1.432438322288281e+04  -8.490849345869520e-01   1.043886985052491e+00   2.889169860609409e+00  -6.514550254350287e-05
2017-01-01T10:38:50.000   3.970648537581923e+04  -1.429548772812243e+04  -8.497363556381630e-01   1.041781417940312e+00   2.889928728962196e+00  -6.513869577575900e-05
2017-01-01T10:39:00.000   3.971689265996811e+04  -1.426658465260413e+04  -8.503877083304925e-01   1.039675300145887e+00   2.890686063945970e+00  -6.513183193135757e-05
2017-01-01T10:39:10.000   3.972727887999081e+04  -1.423767401195944e+04  -8.510389920864133e-01   1.037568632805793e+00   2.891441865155165e+00  -6.512491099150498e-05
2017-01-01T10:39:20.000   3.973764403050454e+04  -1.420875582122961e+04  -8.516902063415998e-01   1.035461417013583e+00   2.892196132200568e+00  -6.511793293731550e-05
2017-01-01T10:39:30.000   3.974798810611211e+04  -1.417983009553049e+04  -8.523413505299450e-01   1.033353653868241e+00   2.892948864691922e+00  -6.511089774997173e-05
2017-01-01T10:39:40.000   3.975831110146399e+04  -1.415089684988093e+04  -8.529924240874310e-01   1.031245344461685e+00   2.893700062242433e+00  -6.510380541068338e-05
2017-01-01T10:39:50.000   3.976861301109102e+04  -1.412195609966397e+04  -8.536434264417251e-01   1.029136489912359e+00   2.894449724456598e+00  -6.509665590079626e-05
2017-01-01T10:40:00.000   3.977889382954292e+04  -1.409300786024635e+04  -8.542943570207666e-01   1.027027091337521e+00   2.895197850940282e+00  -6.508944920170323e-05
2017-01-01T10:40:10.000   3.978915355135708e+04  -1.406405214706346e+04  -8.549452152508504e-01   1.024917149859421e+00   2.895944441298455e+00  -6.508218529486395e-05
2017-01-01T10:40:20.000   3.979939217106857e+04  -1.403508897559669e+04  -8.555960005571548e-01   1.022806666603660e+00   2.896689495135914e+00  -6.507486416180165e-05
2017-01-01T10:40:30.000   3.980960968321897e+04  -1.400611836134415e+04  -8.562467123643825e-01   1.020695642697051e+00   2.897433012057923e+00  -6.506748578409441e-05
2017-01-01T10:40:40.000   3.981980608236028e+04  -1.397714031981028e+04  -8.568973500970001e-01   1.018584079266865e+00   2.898174991670505e+00  -6.506005014337211e-05
2017-01-01T10:40:50.000   3.982998136309200e+04  -1.394815486640244e+04  -8.575479131815656e-01   1.016471977433294e+00   2.898915433583134e+00  -6.505255722129382e-05
2017-01-01T10:41:00.000   3.984013552003603e+04  -1.391916201649969e+04  -8.581984010451752e-01   1.014359338314462e+00   2.899654337406915e+00  -6.504500699956115e-05
2017-01-01T10:41:10.000   3.985026854783686e+04  -1.389016178545286e+04  -8.588488131154637e-01   1.012246163026435e+00   2.900391702754586e+00  -6.503739945991966e-05
2017-01-01T10:41:20.000   3.986038044118487e+04  -1.386115418851511e+04  -8.594991488221548e-01   1.010132452678152e+00   2.901127529242229e+00  -6.502973458413651e-05
2017-01-01T10:41:30.000   3.987047119478066e+04  -1.383213924094582e+04  -8.601494075947363e-01   1.008018208379006e+00   2.901861816486667e+00  -6.502201235403133e-05
